{
  "type": "FeatureCollection",
  "features": [
    {
      "type": "Feature",
      "properties": {
        "norad_id": 34350,
        "name": "IRIDIUM 33 DEB",
        "group": "iridium-33-debris",
        "lat": -33.45381940541921,
        "lon": -174.20250847376883,
        "alt_km": 742.6214360942895,
        "timestamp": "2025-12-11T10:53:16.273997+00:00",
        "meta_object_name": "IRIDIUM 33 DEB",
        "meta_object_id": "1997-051ES",
        "meta_epoch": "2025-12-11T01:50:46.546368",
        "meta_mean_motion": 14.45380646,
        "meta_eccentricity": 0.0022689,
        "meta_inclination": 86.3276,
        "meta_ra_of_asc_node": 3.5288,
        "meta_arg_of_pericenter": 140.3676,
        "meta_mean_anomaly": 273.777,
        "meta_ephemeris_type": 0,
        "meta_classification_type": "U",
        "meta_norad_cat_id": 34350,
        "meta_element_set_no": 999,
        "meta_rev_at_epoch": 88269,
        "meta_bstar": 0.0004553,
        "meta_mean_motion_dot": 1.625e-05,
        "meta_mean_motion_ddot": 0,
        "tle_line1": "1 34350U 97051ES  25345.07692762  .00001625  00000+0  45530-3 0  9998",
        "tle_line2": "2 34350  86.3276   3.5288 0022689 140.3676 273.7770 14.45380646882696"
      },
      "geometry": {
        "type": "Point",
        "coordinates": [
          -174.20250847376883,
          -33.45381940541921
        ]
      }
    },
    {
      "type": "Feature",
      "properties": {
        "norad_id": 34366,
        "name": "IRIDIUM 33 DEB",
        "group": "iridium-33-debris",
        "lat": 38.765878777520925,
        "lon": -133.05024207576275,
        "alt_km": 693.8711740944427,
        "timestamp": "2025-12-11T10:53:16.274007+00:00",
        "meta_object_name": "IRIDIUM 33 DEB",
        "meta_object_id": "1997-051FJ",
        "meta_epoch": "2025-12-11T05:33:55.950912",
        "meta_mean_motion": 14.54036307,
        "meta_eccentricity": 0.0022295,
        "meta_inclination": 86.3694,
        "meta_ra_of_asc_node": 49.9688,
        "meta_arg_of_pericenter": 144.5199,
        "meta_mean_anomaly": 276.4662,
        "meta_ephemeris_type": 0,
        "meta_classification_type": "U",
        "meta_norad_cat_id": 34366,
        "meta_element_set_no": 999,
        "meta_rev_at_epoch": 88160,
        "meta_bstar": 0.0016788,
        "meta_mean_motion_dot": 7.125e-05,
        "meta_mean_motion_ddot": 0,
        "tle_line1": "1 34366U 97051FJ  25345.23189758  .00007125  00000+0  16788-2 0  9992",
        "tle_line2": "2 34366  86.3694  49.9688 0022295 144.5199 276.4662 14.54036307881606"
      },
      "geometry": {
        "type": "Point",
        "coordinates": [
          -133.05024207576275,
          38.765878777520925
        ]
      }
    },
    {
      "type": "Feature",
      "properties": {
        "norad_id": 34375,
        "name": "IRIDIUM 33 DEB",
        "group": "iridium-33-debris",
        "lat": -44.09369867555328,
        "lon": 6.681800381254953,
        "alt_km": 842.5452911091234,
        "timestamp": "2025-12-11T10:53:16.274018+00:00",
        "meta_object_name": "IRIDIUM 33 DEB",
        "meta_object_id": "1997-051FT",
        "meta_epoch": "2025-12-11T00:23:27.996000",
        "meta_mean_motion": 14.17987093,
        "meta_eccentricity": 0.0103184,
        "meta_inclination": 86.4327,
        "meta_ra_of_asc_node": 183.3931,
        "meta_arg_of_pericenter": 132.1212,
        "meta_mean_anomaly": 19.5612,
        "meta_ephemeris_type": 0,
        "meta_classification_type": "U",
        "meta_norad_cat_id": 34375,
        "meta_element_set_no": 999,
        "meta_rev_at_epoch": 86687,
        "meta_bstar": 0.00057598,
        "meta_mean_motion_dot": 1.262e-05,
        "meta_mean_motion_ddot": 0,
        "tle_line1": "1 34375U 97051FT  25345.01629625  .00001262  00000+0  57598-3 0  9991",
        "tle_line2": "2 34375  86.4327 183.3931 0103184 132.1212  19.5612 14.17987093866879"
      },
      "geometry": {
        "type": "Point",
        "coordinates": [
          6.681800381254953,
          -44.09369867555328
        ]
      }
    },
    {
      "type": "Feature",
      "properties": {
        "norad_id": 34376,
        "name": "IRIDIUM 33 DEB",
        "group": "iridium-33-debris",
        "lat": 28.88759616879642,
        "lon": 9.164621659224814,
        "alt_km": 698.7245431921338,
        "timestamp": "2025-12-11T10:53:16.274029+00:00",
        "meta_object_name": "IRIDIUM 33 DEB",
        "meta_object_id": "1997-051FU",
        "meta_epoch": "2025-12-11T00:54:10.348128",
        "meta_mean_motion": 14.62526883,
        "meta_eccentricity": 0.002699,
        "meta_inclination": 86.299,
        "meta_ra_of_asc_node": 7.3049,
        "meta_arg_of_pericenter": 172.3394,
        "meta_mean_anomaly": 187.8235,
        "meta_ephemeris_type": 0,
        "meta_classification_type": "U",
        "meta_norad_cat_id": 34376,
        "meta_element_set_no": 999,
        "meta_rev_at_epoch": 87982,
        "meta_bstar": 0.0021855,
        "meta_mean_motion_dot": 0.0001117,
        "meta_mean_motion_ddot": 0,
        "tle_line1": "1 34376U 97051FU  25345.03761977  .00011170  00000+0  21855-2 0  9996",
        "tle_line2": "2 34376  86.2990   7.3049 0026990 172.3394 187.8235 14.62526883879820"
      },
      "geometry": {
        "type": "Point",
        "coordinates": [
          9.164621659224814,
          28.88759616879642
        ]
      }
    },
    {
      "type": "Feature",
      "properties": {
        "norad_id": 34486,
        "name": "IRIDIUM 33 DEB",
        "group": "iridium-33-debris",
        "lat": 85.74263291908929,
        "lon": 134.71633505791704,
        "alt_km": 564.1823248421715,
        "timestamp": "2025-12-11T10:53:16.274039+00:00",
        "meta_object_name": "IRIDIUM 33 DEB",
        "meta_object_id": "1997-051GB",
        "meta_epoch": "2025-12-11T02:42:46.567872",
        "meta_mean_motion": 14.95675901,
        "meta_eccentricity": 0.0013534,
        "meta_inclination": 86.394,
        "meta_ra_of_asc_node": 12.7753,
        "meta_arg_of_pericenter": 118.272,
        "meta_mean_anomaly": 301.206,
        "meta_ephemeris_type": 0,
        "meta_classification_type": "U",
        "meta_norad_cat_id": 34486,
        "meta_element_set_no": 999,
        "meta_rev_at_epoch": 88962,
        "meta_bstar": 0.003207,
        "meta_mean_motion_dot": 0.00035889,
        "meta_mean_motion_ddot": 0,
        "tle_line1": "1 34486U 97051GB  25345.11303898  .00035889  00000+0  32070-2 0  9995",
        "tle_line2": "2 34486  86.3940  12.7753 0013534 118.2720 301.2060 14.95675901889621"
      },
      "geometry": {
        "type": "Point",
        "coordinates": [
          134.71633505791704,
          85.74263291908929
        ]
      }
    },
    {
      "type": "Feature",
      "properties": {
        "norad_id": 34487,
        "name": "IRIDIUM 33 DEB",
        "group": "iridium-33-debris",
        "lat": -9.724274130345572,
        "lon": 12.303211729840976,
        "alt_km": 770.4418194011105,
        "timestamp": "2025-12-11T10:53:16.274050+00:00",
        "meta_object_name": "IRIDIUM 33 DEB",
        "meta_object_id": "1997-051GC",
        "meta_epoch": "2025-12-11T01:04:57.503136",
        "meta_mean_motion": 14.43212791,
        "meta_eccentricity": 0.0032648,
        "meta_inclination": 86.3436,
        "meta_ra_of_asc_node": 13.1069,
        "meta_arg_of_pericenter": 133.704,
        "meta_mean_anomaly": 255.6027,
        "meta_ephemeris_type": 0,
        "meta_classification_type": "U",
        "meta_norad_cat_id": 34487,
        "meta_element_set_no": 999,
        "meta_rev_at_epoch": 88224,
        "meta_bstar": 0.00027236,
        "meta_mean_motion_dot": 9.41e-06,
        "meta_mean_motion_ddot": 0,
        "tle_line1": "1 34487U 97051GC  25345.04510999  .00000941  00000+0  27236-3 0  9990",
        "tle_line2": "2 34487  86.3436  13.1069 0032648 133.7040 255.6027 14.43212791882244"
      },
      "geometry": {
        "type": "Point",
        "coordinates": [
          12.303211729840976,
          -9.724274130345572
        ]
      }
    },
    {
      "type": "Feature",
      "properties": {
        "norad_id": 34488,
        "name": "IRIDIUM 33 DEB",
        "group": "iridium-33-debris",
        "lat": -78.46894315603346,
        "lon": -71.91123686879742,
        "alt_km": 492.75734067705525,
        "timestamp": "2025-12-11T10:53:16.274061+00:00",
        "meta_object_name": "IRIDIUM 33 DEB",
        "meta_object_id": "1997-051GD",
        "meta_epoch": "2025-12-10T14:48:36.945792",
        "meta_mean_motion": 15.28578771,
        "meta_eccentricity": 0.0013801,
        "meta_inclination": 86.3253,
        "meta_ra_of_asc_node": 306.8644,
        "meta_arg_of_pericenter": 55.1759,
        "meta_mean_anomaly": 305.0785,
        "meta_ephemeris_type": 0,
        "meta_classification_type": "U",
        "meta_norad_cat_id": 34488,
        "meta_element_set_no": 999,
        "meta_rev_at_epoch": 89207,
        "meta_bstar": 0.0066252,
        "meta_mean_motion_dot": 0.00188937,
        "meta_mean_motion_ddot": 0,
        "tle_line1": "1 34488U 97051GD  25344.61709428  .00188937  00000+0  66252-2 0  9992",
        "tle_line2": "2 34488  86.3253 306.8644 0013801  55.1759 305.0785 15.28578771892077"
      },
      "geometry": {
        "type": "Point",
        "coordinates": [
          -71.91123686879742,
          -78.46894315603346
        ]
      }
    }
  ]
}